OBJECT_NAME,OBJECT_ID,EPOCH,MEAN_MOTION,ECCENTRICITY,INCLINATION,RA_OF_ASC_NODE,ARG_OF_PERICENTER,MEAN_ANOMALY,EPHEMERIS_TYPE,CLASSIFICATION_TYPE,NORAD_CAT_ID,ELEMENT_SET_NO,REV_AT_EPOCH,BSTAR,MEAN_MOTION_DOT,MEAN_MOTION_DDOT
SL-16 R/B,1994-077B,2026-06-28T22:07:03.726624,14.15577873,.00035983,70.9831,118.4758,317.3668,42.7175,0,U,23405,999,63197,.39415498E-4,.29E-6,0
ARIANE 40+ R/B,1995-021B,2026-06-28T23:01:23.279808,14.39839437,.00072065,98.4408,249.8640,159.1614,14.5185,0,U,23561,999,63525,.89989338E-4,.239E-5,0
SL-16 R/B,1995-058B,2026-06-28T19:01:17.740416,14.15511771,.00144825,71.0230,306.9920,304.5028,55.4727,0,U,23705,999,58357,-.57541454E-4,-.16E-5,0
SL-16 R/B,1996-051B,2026-06-28T17:11:52.614816,14.12449946,.00164664,70.7652,300.2486,320.2719,39.7193,0,U,24298,999,53732,.95741755E-4,.128E-5,0
ORBVIEW 2 (SEASTAR),1997-037A,2026-06-28T22:31:28.049376,14.35559261,.00033434,98.8696,347.2837,92.9835,267.1732,0,U,24883,999,52443,.97994614E-4,.235E-5,0
SL-16 R/B,1998-043G,2026-06-28T20:52:09.996096,14.26070343,.00107895,98.8369,134.1296,55.9335,304.2867,0,U,25400,999,45483,.30637617E-4,.28E-6,0
SL-16 R/B,1998-045B,2026-06-28T19:40:16.654944,14.16204923,.00088789,71.0123,307.8652,226.6295,133.4090,0,U,25407,999,44283,.15792786E-3,.265E-5,0
ISS (ZARYA),1998-067A,2026-06-28T16:05:22.337952,15.49468267,.00042679,51.6320,243.2491,243.5322,116.5229,0,U,25544,999,57353,.10963493E-3,.5693E-4,0
CZ-4B R/B,1999-025C,2026-06-28T17:12:35.776800,14.18285244,.00375668,98.6478,221.2652,27.1389,81.0560,0,U,25732,999,40390,.38429951E-4,.37E-6,0
OKEAN-O,1999-039A,2026-06-28T16:51:08.328672,14.80480206,.00012843,97.9311,238.3677,70.0545,290.0805,0,U,25860,999,45081,.78971605E-4,.552E-5,0
SL-16 R/B,1999-039B,2026-06-28T21:58:47.399232,14.81855954,.0013402,97.9834,238.7453,254.9362,105.0368,0,U,25861,999,45333,.63307215E-4,.447E-5,0
DELTA 2 R/B,1999-041E,2026-06-28T18:48:20.352096,14.12035884,.05010278,51.7625,217.4706,316.2911,39.9352,0,U,25876,999,37872,.21074013E-3,.1074E-4,0
HELIOS 1B,1999-064A,2026-06-28T17:52:18.765696,14.88035686,.00024669,98.1605,85.2185,75.1616,284.9872,0,U,25977,999,70177,.15067139E-3,.1325E-4,0
TERRA,1999-068A,2026-06-28T22:35:24.379296,14.61111903,.00024896,97.9451,229.0212,156.9544,305.3307,0,U,25994,999,41132,.83955317E-4,.368E-5,0
SL-16 R/B,2000-006B,2026-06-28T13:57:00.293760,14.15839493,.00162672,71.0014,224.6676,5.0194,355.1089,0,U,26070,999,36425,.13952267E-3,.227E-5,0
TITAN 4B R/B,2000-047B,2026-06-28T21:57:56.195136,15.10259885,.00458913,67.9892,87.5609,275.2820,84.3094,0,U,26474,999,40970,.15870332E-3,.2527E-4,0
ENVISAT,2002-009A,2026-06-28T20:27:31.540896,14.39067337,.00013898,98.3838,130.9110,86.3518,292.4411,0,U,27386,999,27516,.36471962E-4,.7E-6,0
IDEFIX & ARIANE 42P R/B,2002-021B,2026-06-28T19:20:14.222688,14.31087026,.00109161,98.5943,117.1631,216.2321,143.8124,0,U,27422,999,25991,.83788754E-4,.177E-5,0
AQUA,2002-022A,2026-06-28T21:16:48.416736,14.62174961,.00007241,98.4282,149.4036,68.5145,319.7656,0,U,27424,999,28498,.15562727E-3,.734E-5,0
CZ-4B R/B,2002-024C,2026-06-28T17:00:19.997856,14.14565997,.00511369,98.8695,232.4537,68.1893,41.5644,0,U,27432,999,24493,.46776616E-4,.47E-6,0
MIDORI II (ADEOS-II),2002-056A,2026-06-28T21:33:33.820704,14.29355554,.00020317,98.7884,139.2580,61.2157,298.9228,0,U,27597,999,22618,.10579859E-3,.224E-5,0
H-2A R/B,2002-056E,2026-06-28T20:59:18.960000,14.33826828,.00698174,98.3316,136.1232,189.3865,228.9169,0,U,27601,999,23004,.77425536E-4,.18E-5,0
CZ-4B R/B,2003-049C,2026-06-28T22:06:19.729152,14.55107094,.00469301,98.6899,179.2348,251.8638,107.7444,0,U,28059,999,20277,.69827716E-4,.254E-5,0
CZ-2C R/B,2004-012C,2026-06-28T22:32:56.065056,15.81356845,.00106148,97.7077,256.9890,240.6071,119.4137,0,U,28222,999,22175,.58806691E-3,.117323E-2,0
SL-16 R/B,2004-021B,2026-06-28T21:35:16.357632,14.14608433,.00067652,71.0008,359.1077,239.9579,120.0872,0,U,28353,999,13856,.13211262E-3,.206E-5,0
CZ-4B R/B,2004-035C,2026-06-28T15:18:45.941472,15.30781837,.00289469,97.3362,212.5829,295.1770,64.6469,0,U,28415,999,19687,.23010962E-3,.6854E-4,0
CZ-2C R/B,2004-046B,2026-06-28T23:18:30.411648,14.27029101,.0139161,98.1936,88.0152,185.2617,174.7111,0,U,28480,999,12437,.49713134E-4,.93E-6,0
ARIANE 5 R/B,2004-049H,2026-06-28T22:02:09.989088,14.85462273,.0083624,98.2728,352.6247,351.5129,8.4665,0,U,28499,999,16230,.66663331E-4,.546E-5,0
CZ-2D R/B,2005-024B,2026-06-28T15:03:03.512736,15.70817398,.00010824,97.3472,199.6359,18.6981,341.4322,0,U,28738,999,15713,.42657276E-3,.53065E-3,0
ALOS (DAICHI),2006-002A,2026-06-28T20:46:45.591744,14.70072787,.00010185,98.1328,135.3971,59.4233,300.7073,0,U,28931,999,8981,.1819225E-3,.1043E-4,0
