SL-16 R/B               
1 23405U 94077B   26179.92157091  .00000029  00000+0  39415-4 0  9996
2 23405  70.9831 118.4758 0003598 317.3668  42.7175 14.15577873631977
ARIANE 40+ R/B          
1 23561U 95021B   26179.95929722  .00000239  00000+0  89989-4 0  9994
2 23561  98.4408 249.8640 0007206 159.1614  14.5185 14.39839437635253
SL-16 R/B               
1 23705U 95058B   26179.79256644 -.00000160  00000+0 -57541-4 0  9996
2 23705  71.0230 306.9920 0014482 304.5028  55.4727 14.15511771583573
SL-16 R/B               
1 24298U 96051B   26179.71658119  .00000128  00000+0  95742-4 0  9990
2 24298  70.7652 300.2486 0016466 320.2719  39.7193 14.12449946537320
ORBVIEW 2 (SEASTAR)     
1 24883U 97037A   26179.93851909  .00000235  00000+0  97995-4 0  9992
2 24883  98.8696 347.2837 0003343  92.9835 267.1732 14.35559261524433
SL-16 R/B               
1 25400U 98043G   26179.86956014  .00000028  00000+0  30638-4 0  9992
2 25400  98.8369 134.1296 0010789  55.9335 304.2867 14.26070343454831
SL-16 R/B               
1 25407U 98045B   26179.81963721  .00000265  00000+0  15793-3 0  9996
2 25407  71.0123 307.8652 0008878 226.6295 133.4090 14.16204923442831
ISS (ZARYA)             
1 25544U 98067A   26179.67039743  .00005693  00000+0  10963-3 0  9998
2 25544  51.6320 243.2491 0004267 243.5322 116.5229 15.49468267573535
CZ-4B R/B               
1 25732U 99025C   26179.71708075  .00000037  00000+0  38430-4 0  9995
2 25732  98.6478 221.2652 0037566  27.1389  81.0560 14.18285244403905
OKEAN-O                 
1 25860U 99039A   26179.70217973  .00000552  00000+0  78972-4 0  9990
2 25860  97.9311 238.3677 0001284  70.0545 290.0805 14.80480206450810
SL-16 R/B               
1 25861U 99039B   26179.91582638  .00000447  00000+0  63307-4 0  9996
2 25861  97.9834 238.7453 0013402 254.9362 105.0368 14.81855954453338
DELTA 2 R/B             
1 25876U 99041E   26179.78356889  .00001074  00000+0  21074-3 0  9998
2 25876  51.7625 217.4706 0501027 316.2911  39.9352 14.12035884378725
HELIOS 1B               
1 25977U 99064A   26179.74466164  .00001325  00000+0  15067-3 0  9993
2 25977  98.1605  85.2185 0002466  75.1616 284.9872 14.88035686701775
TERRA                   
1 25994U 99068A   26179.94125439  .00000368  00000+0  83955-4 0  9993
2 25994  97.9451 229.0212 0002489 156.9544 305.3307 14.61111903411320
SL-16 R/B               
1 26070U 00006B   26179.58125340  .00000227  00000+0  13952-3 0  9997
2 26070  71.0014 224.6676 0016267   5.0194 355.1089 14.15839493364252
TITAN 4B R/B            
1 26474U 00047B   26179.91523374  .00002527  00000+0  15870-3 0  9992
2 26474  67.9892  87.5609 0045891 275.2820  84.3094 15.10259885409706
ENVISAT                 
1 27386U 02009A   26179.85244839  .00000070  00000+0  36472-4 0  9997
2 27386  98.3838 130.9110 0001389  86.3518 292.4411 14.39067337275161
IDEFIX & ARIANE 42P R/B 
1 27422U 02021B   26179.80572017  .00000177  00000+0  83789-4 0  9990
2 27422  98.5943 117.1631 0010916 216.2321 143.8124 14.31087026259912
AQUA                    
1 27424U 02022A   26179.88667149  .00000734  00000+0  15563-3 0  9995
2 27424  98.4282 149.4036 0000724  68.5145 319.7656 14.62174961284982
CZ-4B R/B               
1 27432U 02024C   26179.70856479  .00000047  00000+0  46777-4 0  9992
2 27432  98.8695 232.4537 0051136  68.1893  41.5644 14.14565997244939
MIDORI II (ADEOS-II)    
1 27597U 02056A   26179.89830811  .00000224  00000+0  10580-3 0  9990
2 27597  98.7884 139.2580 0002031  61.2157 298.9228 14.29355554226184
H-2A R/B                
1 27601U 02056E   26179.87452500  .00000180  00000+0  77426-4 0  9993
2 27601  98.3316 136.1232 0069817 189.3865 228.9169 14.33826828230048
CZ-4B R/B               
1 28059U 03049C   26179.92106168  .00000254  00000+0  69828-4 0  9995
2 28059  98.6899 179.2348 0046930 251.8638 107.7444 14.55107094202775
CZ-2C R/B               
1 28222U 04012C   26179.93953779  .00117323  00000+0  58807-3 0  9997
2 28222  97.7077 256.9890 0010614 240.6071 119.4137 15.81356845221755
SL-16 R/B               
1 28353U 04021B   26179.89949488  .00000206  00000+0  13211-3 0  9990
2 28353  71.0008 359.1077 0006765 239.9579 120.0872 14.14608433138566
CZ-4B R/B               
1 28415U 04035C   26179.63803173  .00006854  00000+0  23011-3 0  9990
2 28415  97.3362 212.5829 0028946 295.1770  64.6469 15.30781837196870
CZ-2C R/B               
1 28480U 04046B   26179.97118532  .00000093  00000+0  49713-4 0  9996
2 28480  98.1936  88.0152 0139161 185.2617 174.7111 14.27029101124371
ARIANE 5 R/B            
1 28499U 04049H   26179.91817117  .00000546  00000+0  66663-4 0  9994
2 28499  98.2728 352.6247 0083624 351.5129   8.4665 14.85462273162301
CZ-2D R/B               
1 28738U 05024B   26179.62712399  .00053065  00000+0  42657-3 0  9998
2 28738  97.3472 199.6359 0001082  18.6981 341.4322 15.70817398157133
ALOS (DAICHI)           
1 28931U 06002A   26179.86580546  .00001043  00000+0  18192-3 0  9999
2 28931  98.1328 135.3971 0001018  59.4233 300.7073 14.70072787 89810
